[{"OBJECT_NAME":"ONEWEB-0550","OBJECT_ID":"2023-043G","EPOCH":"2025-08-22T03:38:24.266400","MEAN_MOTION":13.21827002,"ECCENTRICITY":0.00021887,"INCLINATION":87.925,"RA_OF_ASC_NODE":303.6529,"ARG_OF_PERICENTER":98.8139,"MEAN_ANOMALY":261.3243,"EPHEMERIS_TYPE":0,"CLASSIFICATION_TYPE":"U","NORAD_CAT_ID":56052,"ELEMENT_SET_NO":999,"REV_AT_EPOCH":11872,"BSTAR":0.00022374904,"MEAN_MOTION_DOT":1.05e-6,"MEAN_MOTION_DDOT":0},{"OBJECT_NAME":"ONEWEB-0551","OBJECT_ID":"2023-043H","EPOCH":"2025-08-20T17:29:27.684960","MEAN_MOTION":13.1554857,"ECCENTRICITY":0.000178,"INCLINATION":87.9071,"RA_OF_ASC_NODE":319.1729,"ARG_OF_PERICENTER":93.1136,"MEAN_ANOMALY":267.0198,"EPHEMERIS_TYPE":0,"CLASSIFICATION_TYPE":"U","NORAD_CAT_ID":56053,"ELEMENT_SET_NO":999,"REV_AT_EPOCH":11689,"BSTAR":-0.00031644,"MEAN_MOTION_DOT":-1.06e-6,"MEAN_MOTION_DDOT":0},{"OBJECT_NAME":"ONEWEB-0552","OBJECT_ID":"2023-043J","EPOCH":"2025-08-22T03:29:19.718304","MEAN_MOTION":13.21824896,"ECCENTRICITY":0.00019462,"INCLINATION":87.925,"RA_OF_ASC_NODE":303.663,"ARG_OF_PERICENTER":89.2233,"MEAN_ANOMALY":270.9124,"EPHEMERIS_TYPE":0,"CLASSIFICATION_TYPE":"U","NORAD_CAT_ID":56054,"ELEMENT_SET_NO":999,"REV_AT_EPOCH":11872,"BSTAR":0.00035939783,"MEAN_MOTION_DOT":1.61e-6,"MEAN_MOTION_DDOT":0},{"OBJECT_NAME":"ONEWEB-0553","OBJECT_ID":"2023-043K","EPOCH":"2025-08-22T14:09:25.414272","MEAN_MOTION":13.16593247,"ECCENTRICITY":0.00021986,"INCLINATION":87.9017,"RA_OF_ASC_NODE":288.294,"ARG_OF_PERICENTER":105.6082,"MEAN_ANOMALY":254.5292,"EPHEMERIS_TYPE":0,"CLASSIFICATION_TYPE":"U","NORAD_CAT_ID":56055,"ELEMENT_SET_NO":999,"REV_AT_EPOCH":11968,"BSTAR":0.00014624829,"MEAN_MOTION_DOT":6.9e-7,"MEAN_MOTION_DDOT":0},{"OBJECT_NAME":"ONEWEB-0554","OBJECT_ID":"2023-043L","EPOCH":"2025-08-22T13:51:09.538272","MEAN_MOTION":13.16593707,"ECCENTRICITY":0.00022654,"INCLINATION":87.901,"RA_OF_ASC_NODE":288.322,"ARG_OF_PERICENTER":94.303,"MEAN_ANOMALY":265.836,"EPHEMERIS_TYPE":0,"CLASSIFICATION_TYPE":"U","NORAD_CAT_ID":56056,"ELEMENT_SET_NO":999,"REV_AT_EPOCH":11966,"BSTAR":-0.00070510643,"MEAN_MOTION_DOT":-2.57e-6,"MEAN_MOTION_DDOT":0},{"OBJECT_NAME":"ONEWEB-0555","OBJECT_ID":"2023-043M","EPOCH":"2025-08-22T01:59:51.512640","MEAN_MOTION":13.16595184,"ECCENTRICITY":0.00022545,"INCLINATION":87.9018,"RA_OF_ASC_NODE":288.3894,"ARG_OF_PERICENTER":110.4753,"MEAN_ANOMALY":249.662,"EPHEMERIS_TYPE":0,"CLASSIFICATION_TYPE":"U","NORAD_CAT_ID":56057,"ELEMENT_SET_NO":999,"REV_AT_EPOCH":11960,"BSTAR":0.00023007791,"MEAN_MOTION_DOT":1.01e-6,"MEAN_MOTION_DDOT":0},{"OBJECT_NAME":"ONEWEB-0557","OBJECT_ID":"2023-043N","EPOCH":"2025-08-21T17:13:10.934688","MEAN_MOTION":13.16594934,"ECCENTRICITY":0.00032927,"INCLINATION":87.9013,"RA_OF_ASC_NODE":288.4821,"ARG_OF_PERICENTER":104.5101,"MEAN_ANOMALY":255.6395,"EPHEMERIS_TYPE":0,"CLASSIFICATION_TYPE":"U","NORAD_CAT_ID":56058,"ELEMENT_SET_NO":999,"REV_AT_EPOCH":11955,"BSTAR":-0.00033299376,"MEAN_MOTION_DOT":-1.14e-6,"MEAN_MOTION_DDOT":0},{"OBJECT_NAME":"ONEWEB-0558","OBJECT_ID":"2023-043P","EPOCH":"2025-08-22T03:20:14.449632","MEAN_MOTION":13.21827985,"ECCENTRICITY":0.00016154,"INCLINATION":87.9249,"RA_OF_ASC_NODE":303.6599,"ARG_OF_PERICENTER":90.5644,"MEAN_ANOMALY":269.5675,"EPHEMERIS_TYPE":0,"CLASSIFICATION_TYPE":"U","NORAD_CAT_ID":56059,"ELEMENT_SET_NO":999,"REV_AT_EPOCH":11873,"BSTAR":0.00025455203,"MEAN_MOTION_DOT":1.18e-6,"MEAN_MOTION_DDOT":0},{"OBJECT_NAME":"ONEWEB-0559","OBJECT_ID":"2023-043Q","EPOCH":"2025-08-22T03:04:20.961696","MEAN_MOTION":13.2182548,"ECCENTRICITY":0.00019574,"INCLINATION":87.9249,"RA_OF_ASC_NODE":303.6542,"ARG_OF_PERICENTER":86.3671,"MEAN_ANOMALY":273.7687,"EPHEMERIS_TYPE":0,"CLASSIFICATION_TYPE":"U","NORAD_CAT_ID":56060,"ELEMENT_SET_NO":999,"REV_AT_EPOCH":11874,"BSTAR":0.00019043546,"MEAN_MOTION_DOT":9.2e-7,"MEAN_MOTION_DDOT":0},{"OBJECT_NAME":"ONEWEB-0566","OBJECT_ID":"2023-043R","EPOCH":"2025-08-20T21:51:13.045824","MEAN_MOTION":13.21824822,"ECCENTRICITY":0.0001822,"INCLINATION":87.9251,"RA_OF_ASC_NODE":303.8945,"ARG_OF_PERICENTER":89.1989,"MEAN_ANOMALY":270.9354,"EPHEMERIS_TYPE":0,"CLASSIFICATION_TYPE":"U","NORAD_CAT_ID":56061,"ELEMENT_SET_NO":999,"REV_AT_EPOCH":11856,"BSTAR":7.2425e-5,"MEAN_MOTION_DOT":4.3e-7,"MEAN_MOTION_DDOT":0},{"OBJECT_NAME":"ONEWEB-0568","OBJECT_ID":"2023-043S","EPOCH":"2025-08-21T15:48:50.130720","MEAN_MOTION":13.16594295,"ECCENTRICITY":0.00020647,"INCLINATION":87.9025,"RA_OF_ASC_NODE":288.4707,"ARG_OF_PERICENTER":104.6672,"MEAN_ANOMALY":255.4688,"EPHEMERIS_TYPE":0,"CLASSIFICATION_TYPE":"U","NORAD_CAT_ID":56062,"ELEMENT_SET_NO":999,"REV_AT_EPOCH":11956,"BSTAR":0.00013709488,"MEAN_MOTION_DOT":6.5e-7,"MEAN_MOTION_DDOT":0},{"OBJECT_NAME":"ONEWEB-0574","OBJECT_ID":"2023-043T","EPOCH":"2025-08-22T04:35:10.955328","MEAN_MOTION":13.21824711,"ECCENTRICITY":0.0002212,"INCLINATION":87.925,"RA_OF_ASC_NODE":303.6276,"ARG_OF_PERICENTER":97.9158,"MEAN_ANOMALY":262.2227,"EPHEMERIS_TYPE":0,"CLASSIFICATION_TYPE":"U","NORAD_CAT_ID":56063,"ELEMENT_SET_NO":999,"REV_AT_EPOCH":11877,"BSTAR":0.00019835851,"MEAN_MOTION_DOT":9.5e-7,"MEAN_MOTION_DDOT":0},{"OBJECT_NAME":"ONEWEB-0575","OBJECT_ID":"2023-043U","EPOCH":"2025-08-21T15:39:42.609600","MEAN_MOTION":13.16592664,"ECCENTRICITY":0.00024438,"INCLINATION":87.9019,"RA_OF_ASC_NODE":288.4774,"ARG_OF_PERICENTER":100.7706,"MEAN_ANOMALY":259.37,"EPHEMERIS_TYPE":0,"CLASSIFICATION_TYPE":"U","NORAD_CAT_ID":56064,"ELEMENT_SET_NO":999,"REV_AT_EPOCH":11955,"BSTAR":-8.8416715e-5,"MEAN_MOTION_DOT":-2.1e-7,"MEAN_MOTION_DDOT":0},{"OBJECT_NAME":"ONEWEB-0576","OBJECT_ID":"2023-043V","EPOCH":"2025-08-20T15:29:41.083296","MEAN_MOTION":13.16594909,"ECCENTRICITY":0.0002111,"INCLINATION":87.903,"RA_OF_ASC_NODE":288.6711,"ARG_OF_PERICENTER":101.6307,"MEAN_ANOMALY":258.5061,"EPHEMERIS_TYPE":0,"CLASSIFICATION_TYPE":"U","NORAD_CAT_ID":56065,"ELEMENT_SET_NO":999,"REV_AT_EPOCH":11941,"BSTAR":-0.00014488,"MEAN_MOTION_DOT":-4.3e-7,"MEAN_MOTION_DDOT":0},{"OBJECT_NAME":"ONEWEB-0577","OBJECT_ID":"2023-043W","EPOCH":"2025-08-22T13:14:41.218944","MEAN_MOTION":13.16595209,"ECCENTRICITY":0.00026899,"INCLINATION":87.9028,"RA_OF_ASC_NODE":288.2919,"ARG_OF_PERICENTER":99.0061,"MEAN_ANOMALY":261.1375,"EPHEMERIS_TYPE":0,"CLASSIFICATION_TYPE":"U","NORAD_CAT_ID":56066,"ELEMENT_SET_NO":999,"REV_AT_EPOCH":11969,"BSTAR":-6.6178736e-5,"MEAN_MOTION_DOT":-1.2e-7,"MEAN_MOTION_DDOT":0},{"OBJECT_NAME":"ONEWEB-0578","OBJECT_ID":"2023-043X","EPOCH":"2025-08-22T04:17:00.346272","MEAN_MOTION":13.21825178,"ECCENTRICITY":0.00020099,"INCLINATION":87.9247,"RA_OF_ASC_NODE":303.6405,"ARG_OF_PERICENTER":104.389,"MEAN_ANOMALY":255.7467,"EPHEMERIS_TYPE":0,"CLASSIFICATION_TYPE":"U","NORAD_CAT_ID":56067,"ELEMENT_SET_NO":999,"REV_AT_EPOCH":11873,"BSTAR":0.00035121987,"MEAN_MOTION_DOT":1.58e-6,"MEAN_MOTION_DDOT":0},{"OBJECT_NAME":"ONEWEB-0579","OBJECT_ID":"2023-043Y","EPOCH":"2025-08-21T17:09:22.376448","MEAN_MOTION":13.21824657,"ECCENTRICITY":0.00020014,"INCLINATION":87.9249,"RA_OF_ASC_NODE":303.719,"ARG_OF_PERICENTER":90.2025,"MEAN_ANOMALY":269.9338,"EPHEMERIS_TYPE":0,"CLASSIFICATION_TYPE":"U","NORAD_CAT_ID":56068,"ELEMENT_SET_NO":999,"REV_AT_EPOCH":11868,"BSTAR":-2.6996634e-5,"MEAN_MOTION_DOT":2.0e-8,"MEAN_MOTION_DDOT":0},{"OBJECT_NAME":"ONEWEB-0581","OBJECT_ID":"2023-043Z","EPOCH":"2025-08-22T02:27:12.337632","MEAN_MOTION":13.16593398,"ECCENTRICITY":0.00024486,"INCLINATION":87.9011,"RA_OF_ASC_NODE":288.4045,"ARG_OF_PERICENTER":92.2815,"MEAN_ANOMALY":267.8597,"EPHEMERIS_TYPE":0,"CLASSIFICATION_TYPE":"U","NORAD_CAT_ID":56069,"ELEMENT_SET_NO":999,"REV_AT_EPOCH":11960,"BSTAR":-2.5686984e-5,"MEAN_MOTION_DOT":3.0e-8,"MEAN_MOTION_DDOT":0},{"OBJECT_NAME":"ONEWEB-0609","OBJECT_ID":"2023-043AA","EPOCH":"2025-08-20T18:10:31.248768","MEAN_MOTION":13.15546823,"ECCENTRICITY":0.0001835,"INCLINATION":87.9074,"RA_OF_ASC_NODE":319.147,"ARG_OF_PERICENTER":99.0366,"MEAN_ANOMALY":261.0972,"EPHEMERIS_TYPE":0,"CLASSIFICATION_TYPE":"U","NORAD_CAT_ID":56070,"ELEMENT_SET_NO":999,"REV_AT_EPOCH":11693,"BSTAR":0.00025647,"MEAN_MOTION_DOT":1.09e-6,"MEAN_MOTION_DDOT":0},{"OBJECT_NAME":"ONEWEB-0613","OBJECT_ID":"2023-043AB","EPOCH":"2025-08-22T04:44:36.286080","MEAN_MOTION":13.15547315,"ECCENTRICITY":0.00019184,"INCLINATION":87.9076,"RA_OF_ASC_NODE":318.8748,"ARG_OF_PERICENTER":91.5903,"MEAN_ANOMALY":268.5447,"EPHEMERIS_TYPE":0,"CLASSIFICATION_TYPE":"U","NORAD_CAT_ID":56071,"ELEMENT_SET_NO":999,"REV_AT_EPOCH":11712,"BSTAR":-0.00013461485,"MEAN_MOTION_DOT":-3.8e-7,"MEAN_MOTION_DDOT":0},{"OBJECT_NAME":"ONEWEB-0630","OBJECT_ID":"2023-043AC","EPOCH":"2025-08-22T04:37:45.577632","MEAN_MOTION":13.15548314,"ECCENTRICITY":0.00017825,"INCLINATION":87.9066,"RA_OF_ASC_NODE":318.8505,"ARG_OF_PERICENTER":90.5752,"MEAN_ANOMALY":269.5582,"EPHEMERIS_TYPE":0,"CLASSIFICATION_TYPE":"U","NORAD_CAT_ID":56072,"ELEMENT_SET_NO":999,"REV_AT_EPOCH":11711,"BSTAR":-0.0002143747,"MEAN_MOTION_DOT":-6.8e-7,"MEAN_MOTION_DDOT":0},{"OBJECT_NAME":"ONEWEB-0632","OBJECT_ID":"2023-043AD","EPOCH":"2025-08-22T04:30:55.033344","MEAN_MOTION":13.15548361,"ECCENTRICITY":0.00021297,"INCLINATION":87.907,"RA_OF_ASC_NODE":318.8718,"ARG_OF_PERICENTER":95.8204,"MEAN_ANOMALY":264.3169,"EPHEMERIS_TYPE":0,"CLASSIFICATION_TYPE":"U","NORAD_CAT_ID":56073,"ELEMENT_SET_NO":999,"REV_AT_EPOCH":11711,"BSTAR":-0.00017806099,"MEAN_MOTION_DOT":-5.4e-7,"MEAN_MOTION_DDOT":0},{"OBJECT_NAME":"ONEWEB-0633","OBJECT_ID":"2023-043AE","EPOCH":"2025-08-21T19:14:11.308992","MEAN_MOTION":13.15547792,"ECCENTRICITY":0.00016136,"INCLINATION":87.9069,"RA_OF_ASC_NODE":318.9127,"ARG_OF_PERICENTER":90.7279,"MEAN_ANOMALY":269.4036,"EPHEMERIS_TYPE":0,"CLASSIFICATION_TYPE":"U","NORAD_CAT_ID":56074,"ELEMENT_SET_NO":999,"REV_AT_EPOCH":11704,"BSTAR":-0.00052177181,"MEAN_MOTION_DOT":-1.84e-6,"MEAN_MOTION_DDOT":0}]
